<?xml version="1.0" encoding="UTF-8"?>
<ndm xmlns:xsi="http://www.w3.org/2001/XMLSchema-instance" xsi:noNamespaceSchemaLocation="https://sanaregistry.org/r/ndmxml_unqualified/ndmxml-2.0.0-master-2.0.xsd">
<omm id="CCSDS_OMM_VERS" version="2.0">
<header><CREATION_DATE/><ORIGINATOR/></header><body><segment><metadata><OBJECT_NAME>ORBCOMM FM05</OBJECT_NAME><OBJECT_ID>1997-084F</OBJECT_ID><CENTER_NAME>EARTH</CENTER_NAME><REF_FRAME>TEME</REF_FRAME><TIME_SYSTEM>UTC</TIME_SYSTEM><MEAN_ELEMENT_THEORY>SGP4</MEAN_ELEMENT_THEORY></metadata><data><meanElements><EPOCH>2024-05-16T05:11:42.662400</EPOCH><MEAN_MOTION>14.42745081</MEAN_MOTION><ECCENTRICITY>.0003343</ECCENTRICITY><INCLINATION>45.0142</INCLINATION><RA_OF_ASC_NODE>109.4134</RA_OF_ASC_NODE><ARG_OF_PERICENTER>359.5750</ARG_OF_PERICENTER><MEAN_ANOMALY>0.5097</MEAN_ANOMALY></meanElements><tleParameters><EPHEMERIS_TYPE>0</EPHEMERIS_TYPE><CLASSIFICATION_TYPE>U</CLASSIFICATION_TYPE><NORAD_CAT_ID>25117</NORAD_CAT_ID><ELEMENT_SET_NO>999</ELEMENT_SET_NO><REV_AT_EPOCH>38415</REV_AT_EPOCH><BSTAR>.14089E-2</BSTAR><MEAN_MOTION_DOT>.4597E-4</MEAN_MOTION_DOT><MEAN_MOTION_DDOT>0</MEAN_MOTION_DDOT></tleParameters></data></segment></body></omm>
<omm id="CCSDS_OMM_VERS" version="2.0">
<header><CREATION_DATE/><ORIGINATOR/></header><body><segment><metadata><OBJECT_NAME>ORBCOMM FM06</OBJECT_NAME><OBJECT_ID>1997-084G</OBJECT_ID><CENTER_NAME>EARTH</CENTER_NAME><REF_FRAME>TEME</REF_FRAME><TIME_SYSTEM>UTC</TIME_SYSTEM><MEAN_ELEMENT_THEORY>SGP4</MEAN_ELEMENT_THEORY></metadata><data><meanElements><EPOCH>2024-05-15T23:41:39.869664</EPOCH><MEAN_MOTION>14.42789049</MEAN_MOTION><ECCENTRICITY>.0002463</ECCENTRICITY><INCLINATION>45.0133</INCLINATION><RA_OF_ASC_NODE>110.6733</RA_OF_ASC_NODE><ARG_OF_PERICENTER>356.1223</ARG_OF_PERICENTER><MEAN_ANOMALY>107.0925</MEAN_ANOMALY></meanElements><tleParameters><EPHEMERIS_TYPE>0</EPHEMERIS_TYPE><CLASSIFICATION_TYPE>U</CLASSIFICATION_TYPE><NORAD_CAT_ID>25118</NORAD_CAT_ID><ELEMENT_SET_NO>999</ELEMENT_SET_NO><REV_AT_EPOCH>38411</REV_AT_EPOCH><BSTAR>.16846E-2</BSTAR><MEAN_MOTION_DOT>.5531E-4</MEAN_MOTION_DOT><MEAN_MOTION_DDOT>0</MEAN_MOTION_DDOT></tleParameters></data></segment></body></omm>
<omm id="CCSDS_OMM_VERS" version="2.0">
<header><CREATION_DATE/><ORIGINATOR/></header><body><segment><metadata><OBJECT_NAME>ORBCOMM FM07</OBJECT_NAME><OBJECT_ID>1997-084H</OBJECT_ID><CENTER_NAME>EARTH</CENTER_NAME><REF_FRAME>TEME</REF_FRAME><TIME_SYSTEM>UTC</TIME_SYSTEM><MEAN_ELEMENT_THEORY>SGP4</MEAN_ELEMENT_THEORY></metadata><data><meanElements><EPOCH>2024-05-16T05:39:48.102624</EPOCH><MEAN_MOTION>14.42711331</MEAN_MOTION><ECCENTRICITY>.0004206</ECCENTRICITY><INCLINATION>45.0129</INCLINATION><RA_OF_ASC_NODE>110.0254</RA_OF_ASC_NODE><ARG_OF_PERICENTER>355.5686</ARG_OF_PERICENTER><MEAN_ANOMALY>4.5126</MEAN_ANOMALY></meanElements><tleParameters><EPHEMERIS_TYPE>0</EPHEMERIS_TYPE><CLASSIFICATION_TYPE>U</CLASSIFICATION_TYPE><NORAD_CAT_ID>25119</NORAD_CAT_ID><ELEMENT_SET_NO>999</ELEMENT_SET_NO><REV_AT_EPOCH>38414</REV_AT_EPOCH><BSTAR>.14117E-2</BSTAR><MEAN_MOTION_DOT>.4603E-4</MEAN_MOTION_DOT><MEAN_MOTION_DDOT>0</MEAN_MOTION_DDOT></tleParameters></data></segment></body></omm>
<omm id="CCSDS_OMM_VERS" version="2.0">
<header><CREATION_DATE/><ORIGINATOR/></header><body><segment><metadata><OBJECT_NAME>ORBCOMM FM03</OBJECT_NAME><OBJECT_ID>1998-007B</OBJECT_ID><CENTER_NAME>EARTH</CENTER_NAME><REF_FRAME>TEME</REF_FRAME><TIME_SYSTEM>UTC</TIME_SYSTEM><MEAN_ELEMENT_THEORY>SGP4</MEAN_ELEMENT_THEORY></metadata><data><meanElements><EPOCH>2024-05-16T10:57:20.570976</EPOCH><MEAN_MOTION>14.32198625</MEAN_MOTION><ECCENTRICITY>.0047761</ECCENTRICITY><INCLINATION>107.9711</INCLINATION><RA_OF_ASC_NODE>41.9091</RA_OF_ASC_NODE><ARG_OF_PERICENTER>223.2382</ARG_OF_PERICENTER><MEAN_ANOMALY>136.5003</MEAN_ANOMALY></meanElements><tleParameters><EPHEMERIS_TYPE>0</EPHEMERIS_TYPE><CLASSIFICATION_TYPE>U</CLASSIFICATION_TYPE><NORAD_CAT_ID>25158</NORAD_CAT_ID><ELEMENT_SET_NO>999</ELEMENT_SET_NO><REV_AT_EPOCH>36733</REV_AT_EPOCH><BSTAR>.89341E-3</BSTAR><MEAN_MOTION_DOT>.231E-4</MEAN_MOTION_DOT><MEAN_MOTION_DDOT>0</MEAN_MOTION_DDOT></tleParameters></data></segment></body></omm>
<omm id="CCSDS_OMM_VERS" version="2.0">
<header><CREATION_DATE/><ORIGINATOR/></header><body><segment><metadata><OBJECT_NAME>ORBCOMM FM04</OBJECT_NAME><OBJECT_ID>1998-007C</OBJECT_ID><CENTER_NAME>EARTH</CENTER_NAME><REF_FRAME>TEME</REF_FRAME><TIME_SYSTEM>UTC</TIME_SYSTEM><MEAN_ELEMENT_THEORY>SGP4</MEAN_ELEMENT_THEORY></metadata><data><meanElements><EPOCH>2024-05-16T12:19:58.141632</EPOCH><MEAN_MOTION>14.32466487</MEAN_MOTION><ECCENTRICITY>.0043237</ECCENTRICITY><INCLINATION>107.9693</INCLINATION><RA_OF_ASC_NODE>44.9666</RA_OF_ASC_NODE><ARG_OF_PERICENTER>221.0520</ARG_OF_PERICENTER><MEAN_ANOMALY>138.7361</MEAN_ANOMALY></meanElements><tleParameters><EPHEMERIS_TYPE>0</EPHEMERIS_TYPE><CLASSIFICATION_TYPE>U</CLASSIFICATION_TYPE><NORAD_CAT_ID>25159</NORAD_CAT_ID><ELEMENT_SET_NO>999</ELEMENT_SET_NO><REV_AT_EPOCH>36748</REV_AT_EPOCH><BSTAR>.11928E-2</BSTAR><MEAN_MOTION_DOT>.314E-4</MEAN_MOTION_DOT><MEAN_MOTION_DDOT>0</MEAN_MOTION_DDOT></tleParameters></data></segment></body></omm>
<omm id="CCSDS_OMM_VERS" version="2.0">
<header><CREATION_DATE/><ORIGINATOR/></header><body><segment><metadata><OBJECT_NAME>ORBCOMM FM17</OBJECT_NAME><OBJECT_ID>1998-046A</OBJECT_ID><CENTER_NAME>EARTH</CENTER_NAME><REF_FRAME>TEME</REF_FRAME><TIME_SYSTEM>UTC</TIME_SYSTEM><MEAN_ELEMENT_THEORY>SGP4</MEAN_ELEMENT_THEORY></metadata><data><meanElements><EPOCH>2024-05-15T13:56:17.822112</EPOCH><MEAN_MOTION>14.33176356</MEAN_MOTION><ECCENTRICITY>.0001798</ECCENTRICITY><INCLINATION>44.9949</INCLINATION><RA_OF_ASC_NODE>331.3498</RA_OF_ASC_NODE><ARG_OF_PERICENTER>29.8524</ARG_OF_PERICENTER><MEAN_ANOMALY>330.2425</MEAN_ANOMALY></meanElements><tleParameters><EPHEMERIS_TYPE>0</EPHEMERIS_TYPE><CLASSIFICATION_TYPE>U</CLASSIFICATION_TYPE><NORAD_CAT_ID>25413</NORAD_CAT_ID><ELEMENT_SET_NO>999</ELEMENT_SET_NO><REV_AT_EPOCH>34626</REV_AT_EPOCH><BSTAR>.10779E-2</BSTAR><MEAN_MOTION_DOT>.2847E-4</MEAN_MOTION_DOT><MEAN_MOTION_DDOT>0</MEAN_MOTION_DDOT></tleParameters></data></segment></body></omm>
<omm id="CCSDS_OMM_VERS" version="2.0">
<header><CREATION_DATE/><ORIGINATOR/></header><body><segment><metadata><OBJECT_NAME>ORBCOMM FM18</OBJECT_NAME><OBJECT_ID>1998-046B</OBJECT_ID><CENTER_NAME>EARTH</CENTER_NAME><REF_FRAME>TEME</REF_FRAME><TIME_SYSTEM>UTC</TIME_SYSTEM><MEAN_ELEMENT_THEORY>SGP4</MEAN_ELEMENT_THEORY></metadata><data><meanElements><EPOCH>2024-05-16T01:15:26.699040</EPOCH><MEAN_MOTION>14.35950547</MEAN_MOTION><ECCENTRICITY>.0002782</ECCENTRICITY><INCLINATION>44.9924</INCLINATION><RA_OF_ASC_NODE>256.1064</RA_OF_ASC_NODE><ARG_OF_PERICENTER>102.9177</ARG_OF_PERICENTER><MEAN_ANOMALY>257.1981</MEAN_ANOMALY></meanElements><tleParameters><EPHEMERIS_TYPE>0</EPHEMERIS_TYPE><CLASSIFICATION_TYPE>U</CLASSIFICATION_TYPE><NORAD_CAT_ID>25414</NORAD_CAT_ID><ELEMENT_SET_NO>999</ELEMENT_SET_NO><REV_AT_EPOCH>34728</REV_AT_EPOCH><BSTAR>.12626E-2</BSTAR><MEAN_MOTION_DOT>.3559E-4</MEAN_MOTION_DOT><MEAN_MOTION_DDOT>0</MEAN_MOTION_DDOT></tleParameters></data></segment></body></omm>
<omm id="CCSDS_OMM_VERS" version="2.0">
<header><CREATION_DATE/><ORIGINATOR/></header><body><segment><metadata><OBJECT_NAME>ORBCOMM FM19</OBJECT_NAME><OBJECT_ID>1998-046C</OBJECT_ID><CENTER_NAME>EARTH</CENTER_NAME><REF_FRAME>TEME</REF_FRAME><TIME_SYSTEM>UTC</TIME_SYSTEM><MEAN_ELEMENT_THEORY>SGP4</MEAN_ELEMENT_THEORY></metadata><data><meanElements><EPOCH>2024-05-16T08:54:22.845600</EPOCH><MEAN_MOTION>14.35788948</MEAN_MOTION><ECCENTRICITY>.0001558</ECCENTRICITY><INCLINATION>44.9934</INCLINATION><RA_OF_ASC_NODE>256.0198</RA_OF_ASC_NODE><ARG_OF_PERICENTER>104.1527</ARG_OF_PERICENTER><MEAN_ANOMALY>276.7396</MEAN_ANOMALY></meanElements><tleParameters><EPHEMERIS_TYPE>0</EPHEMERIS_TYPE><CLASSIFICATION_TYPE>U</CLASSIFICATION_TYPE><NORAD_CAT_ID>25415</NORAD_CAT_ID><ELEMENT_SET_NO>999</ELEMENT_SET_NO><REV_AT_EPOCH>34732</REV_AT_EPOCH><BSTAR>.13793E-2</BSTAR><MEAN_MOTION_DOT>.3888E-4</MEAN_MOTION_DOT><MEAN_MOTION_DDOT>0</MEAN_MOTION_DDOT></tleParameters></data></segment></body></omm>

</ndm>
