ORBCOMM FM05            
1 25117U 97084F   24137.21646600  .00004597  00000+0  14089-2 0  9994
2 25117  45.0142 109.4134 0003343 359.5750   0.5097 14.42745081384151
ORBCOMM FM06            
1 25118U 97084G   24136.98726701  .00005531  00000+0  16846-2 0  9991
2 25118  45.0133 110.6733 0002463 356.1223 107.0925 14.42789049384112
ORBCOMM FM07            
1 25119U 97084H   24137.23597341  .00004603  00000+0  14117-2 0  9995
2 25119  45.0129 110.0254 0004206 355.5686   4.5126 14.42711331384149
ORBCOMM FM03            
1 25158U 98007B   24137.45648809  .00002310  00000+0  89341-3 0  9999
2 25158 107.9711  41.9091 0047761 223.2382 136.5003 14.32198625367331
ORBCOMM FM04            
1 25159U 98007C   24137.51386738  .00003140  00000+0  11928-2 0  9994
2 25159 107.9693  44.9666 0043237 221.0520 138.7361 14.32466487367487
ORBCOMM FM17            
1 25413U 98046A   24136.58076183  .00002847  00000+0  10779-2 0  9992
2 25413  44.9949 331.3498 0001798  29.8524 330.2425 14.33176356346261
ORBCOMM FM18            
1 25414U 98046B   24137.05239235  .00003559  00000+0  12626-2 0  9999
2 25414  44.9924 256.1064 0002782 102.9177 257.1981 14.35950547347280
ORBCOMM FM19            
1 25415U 98046C   24137.37109775  .00003888  00000+0  13793-2 0  9991
2 25415  44.9934 256.0198 0001558 104.1527 276.7396 14.35788948347328
